[
  {
    "COMMENT": "GENERATED VIA SPACETRACK.ORG API",
    "ORIGINATOR": "18 SPCS",
    "NORAD_CAT_ID": "43682",
    "OBJECT_NAME": "H-2A R/B",
    "OBJECT_TYPE": "ROCKET BODY",
    "CLASSIFICATION_TYPE": "U",
    "INTLDES": "18084L",
    "EPOCH": "2020-01-31 10:20:12",
    "EPOCH_MICROSECONDS": "247584",
    "MEAN_MOTION": "15.02765184",
    "ECCENTRICITY": "0.0056407",
    "INCLINATION": "98.9002",
    "RA_OF_ASC_NODE": "218.0764",
    "ARG_OF_PERICENTER": "225.0364",
    "MEAN_ANOMALY": "134.6274",
    "EPHEMERIS_TYPE": "0",
    "ELEMENT_SET_NO": "999",
    "REV_AT_EPOCH": "6892",
    "BSTAR": "0.00000094149",
    "MEAN_MOTION_DOT": "-0.00000072",
    "MEAN_MOTION_DDOT": "0",
    "FILE": "2692777",
    "TLE_LINE0": "0 H-2A R/B",
    "TLE_LINE1": "1 43682U 18084L   20031.43069731 -.00000072  00000-0  94149-6 0  9996",
    "TLE_LINE2": "2 43682  98.9002 218.0764 0056407 225.0364 134.6274 15.02765184 68926",
    "OBJECT_ID": "2018-084L",
    "OBJECT_NUMBER": "43682",
    "SEMIMAJOR_AXIS": "6936.511",
    "PERIOD": "95.823",
    "APOGEE": "597.503",
    "PERIGEE": "519.249",
    "DECAYED": "0"
  },
  {
    "COMMENT": "GENERATED VIA SPACETRACK.ORG API",
    "ORIGINATOR": "18 SPCS",
    "NORAD_CAT_ID": "43682",
    "OBJECT_NAME": "H-2A R/B",
    "OBJECT_TYPE": "ROCKET BODY",
    "CLASSIFICATION_TYPE": "U",
    "INTLDES": "18084L",
    "EPOCH": "2020-01-31 11:56:05",
    "EPOCH_MICROSECONDS": "161344",
    "MEAN_MOTION": "15.02765124",
    "ECCENTRICITY": "0.0056405",
    "INCLINATION": "98.9002",
    "RA_OF_ASC_NODE": "218.1532",
    "ARG_OF_PERICENTER": "224.808",
    "MEAN_ANOMALY": "134.8581",
    "EPHEMERIS_TYPE": "0",
    "ELEMENT_SET_NO": "999",
    "REV_AT_EPOCH": "6893",
    "BSTAR": "0.00000041095",
    "MEAN_MOTION_DOT": "-0.0000008",
    "MEAN_MOTION_DDOT": "0",
    "FILE": "2693117",
    "TLE_LINE0": "0 H-2A R/B",
    "TLE_LINE1": "1 43682U 18084L   20031.49728196 -.00000080 +00000-0 +41095-6 0  9990",
    "TLE_LINE2": "2 43682 098.9002 218.1532 0056405 224.8080 134.8581 15.02765124068938",
    "OBJECT_ID": "2018-084L",
    "OBJECT_NUMBER": "43682",
    "SEMIMAJOR_AXIS": "6936.511",
    "PERIOD": "95.823",
    "APOGEE": "597.502",
    "PERIGEE": "519.251",
    "DECAYED": "0"
  },
  {
    "COMMENT": "GENERATED VIA SPACETRACK.ORG API",
    "ORIGINATOR": "18 SPCS",
    "NORAD_CAT_ID": "43682",
    "OBJECT_NAME": "H-2A R/B",
    "OBJECT_TYPE": "ROCKET BODY",
    "CLASSIFICATION_TYPE": "U",
    "INTLDES": "18084L",
    "EPOCH": "2020-01-31 23:07:15",
    "EPOCH_MICROSECONDS": "491136",
    "MEAN_MOTION": "15.02765164",
    "ECCENTRICITY": "0.0056388",
    "INCLINATION": "98.9006",
    "RA_OF_ASC_NODE": "218.6887",
    "ARG_OF_PERICENTER": "223.2857",
    "MEAN_ANOMALY": "136.3926",
    "EPHEMERIS_TYPE": "0",
    "ELEMENT_SET_NO": "999",
    "REV_AT_EPOCH": "6900",
    "BSTAR": "0.0000010879",
    "MEAN_MOTION_DOT": "-0.0000007",
    "MEAN_MOTION_DDOT": "0",
    "FILE": "2693254",
    "TLE_LINE0": "0 H-2A R/B",
    "TLE_LINE1": "1 43682U 18084L   20031.96337374 -.00000070 +00000-0 +10879-5 0  9990",
    "TLE_LINE2": "2 43682 098.9006 218.6887 0056388 223.2857 136.3926 15.02765164069008",
    "OBJECT_ID": "2018-084L",
    "OBJECT_NUMBER": "43682",
    "SEMIMAJOR_AXIS": "6936.511",
    "PERIOD": "95.823",
    "APOGEE": "597.490",
    "PERIGEE": "519.263",
    "DECAYED": "0"
  },
  {
    "COMMENT": "GENERATED VIA SPACETRACK.ORG API",
    "ORIGINATOR": "18 SPCS",
    "NORAD_CAT_ID": "43682",
    "OBJECT_NAME": "H-2A R/B",
    "OBJECT_TYPE": "ROCKET BODY",
    "CLASSIFICATION_TYPE": "U",
    "INTLDES": "18084L",
    "EPOCH": "2020-02-01 02:19:01",
    "EPOCH_MICROSECONDS": "315200",
    "MEAN_MOTION": "15.02764987",
    "ECCENTRICITY": "0.0056428",
    "INCLINATION": "98.9006",
    "RA_OF_ASC_NODE": "218.8414",
    "ARG_OF_PERICENTER": "222.7752",
    "MEAN_ANOMALY": "136.907",
    "EPHEMERIS_TYPE": "0",
    "ELEMENT_SET_NO": "999",
    "REV_AT_EPOCH": "6902",
    "BSTAR": "-0.00000073402",
    "MEAN_MOTION_DOT": "-0.00000096",
    "MEAN_MOTION_DDOT": "0",
    "FILE": "2693665",
    "TLE_LINE0": "0 H-2A R/B",
    "TLE_LINE1": "1 43682U 18084L   20032.09654300 -.00000096 +00000-0 -73402-6 0  9997",
    "TLE_LINE2": "2 43682 098.9006 218.8414 0056428 222.7752 136.9070 15.02764987069029",
    "OBJECT_ID": "2018-084L",
    "OBJECT_NUMBER": "43682",
    "SEMIMAJOR_AXIS": "6936.512",
    "PERIOD": "95.823",
    "APOGEE": "597.518",
    "PERIGEE": "519.235",
    "DECAYED": "0"
  },
  {
    "COMMENT": "GENERATED VIA SPACETRACK.ORG API",
    "ORIGINATOR": "18 SPCS",
    "NORAD_CAT_ID": "43682",
    "OBJECT_NAME": "H-2A R/B",
    "OBJECT_TYPE": "ROCKET BODY",
    "CLASSIFICATION_TYPE": "U",
    "INTLDES": "18084L",
    "EPOCH": "2020-02-01 11:54:18",
    "EPOCH_MICROSECONDS": "775296",
    "MEAN_MOTION": "15.02764962",
    "ECCENTRICITY": "0.0056405",
    "INCLINATION": "98.9005",
    "RA_OF_ASC_NODE": "219.3",
    "ARG_OF_PERICENTER": "221.4779",
    "MEAN_ANOMALY": "138.2159",
    "EPHEMERIS_TYPE": "0",
    "ELEMENT_SET_NO": "999",
    "REV_AT_EPOCH": "6908",
    "BSTAR": "-0.00000080571",
    "MEAN_MOTION_DOT": "-0.00000097",
    "MEAN_MOTION_DDOT": "0",
    "FILE": "2693489",
    "TLE_LINE0": "0 H-2A R/B",
    "TLE_LINE1": "1 43682U 18084L   20032.49605064 -.00000097  00000-0 -80571-6 0  9990",
    "TLE_LINE2": "2 43682  98.9005 219.3000 0056405 221.4779 138.2159 15.02764962 69087",
    "OBJECT_ID": "2018-084L",
    "OBJECT_NUMBER": "43682",
    "SEMIMAJOR_AXIS": "6936.512",
    "PERIOD": "95.823",
    "APOGEE": "597.502",
    "PERIGEE": "519.251",
    "DECAYED": "0"
  },
  {
    "COMMENT": "GENERATED VIA SPACETRACK.ORG API",
    "ORIGINATOR": "18 SPCS",
    "NORAD_CAT_ID": "43682",
    "OBJECT_NAME": "H-2A R/B",
    "OBJECT_TYPE": "ROCKET BODY",
    "CLASSIFICATION_TYPE": "U",
    "INTLDES": "18084L",
    "EPOCH": "2020-02-02 11:52:32",
    "EPOCH_MICROSECONDS": "440224",
    "MEAN_MOTION": "15.02764563",
    "ECCENTRICITY": "0.0056499",
    "INCLINATION": "98.9003",
    "RA_OF_ASC_NODE": "220.4461",
    "ARG_OF_PERICENTER": "218.0895",
    "MEAN_ANOMALY": "141.6334",
    "EPHEMERIS_TYPE": "0",
    "ELEMENT_SET_NO": "999",
    "REV_AT_EPOCH": "6923",
    "BSTAR": "-0.0000040667",
    "MEAN_MOTION_DOT": "-0.00000142",
    "MEAN_MOTION_DDOT": "0",
    "FILE": "2694136",
    "TLE_LINE0": "0 H-2A R/B",
    "TLE_LINE1": "1 43682U 18084L   20033.49481991 -.00000142 +00000-0 -40667-5 0  9994",
    "TLE_LINE2": "2 43682 098.9003 220.4461 0056499 218.0895 141.6334 15.02764563069230",
    "OBJECT_ID": "2018-084L",
    "OBJECT_NUMBER": "43682",
    "SEMIMAJOR_AXIS": "6936.513",
    "PERIOD": "95.823",
    "APOGEE": "597.569",
    "PERIGEE": "519.187",
    "DECAYED": "0"
  },
  {
    "COMMENT": "GENERATED VIA SPACETRACK.ORG API",
    "ORIGINATOR": "18 SPCS",
    "NORAD_CAT_ID": "43682",
    "OBJECT_NAME": "H-2A R/B",
    "OBJECT_TYPE": "ROCKET BODY",
    "CLASSIFICATION_TYPE": "U",
    "INTLDES": "18084L",
    "EPOCH": "2020-02-02 21:27:49",
    "EPOCH_MICROSECONDS": "895136",
    "MEAN_MOTION": "15.02764669",
    "ECCENTRICITY": "0.0056484",
    "INCLINATION": "98.9004",
    "RA_OF_ASC_NODE": "220.9047",
    "ARG_OF_PERICENTER": "216.7827",
    "MEAN_ANOMALY": "142.9522",
    "EPHEMERIS_TYPE": "0",
    "ELEMENT_SET_NO": "999",
    "REV_AT_EPOCH": "6929",
    "BSTAR": "-0.000002382",
    "MEAN_MOTION_DOT": "-0.00000118",
    "MEAN_MOTION_DDOT": "0",
    "FILE": "2694255",
    "TLE_LINE0": "0 H-2A R/B",
    "TLE_LINE1": "1 43682U 18084L   20033.89432749 -.00000118  00000-0 -23820-5 0  9990",
    "TLE_LINE2": "2 43682  98.9004 220.9047 0056484 216.7827 142.9522 15.02764669 69296",
    "OBJECT_ID": "2018-084L",
    "OBJECT_NUMBER": "43682",
    "SEMIMAJOR_AXIS": "6936.513",
    "PERIOD": "95.823",
    "APOGEE": "597.558",
    "PERIGEE": "519.198",
    "DECAYED": "0"
  },
  {
    "COMMENT": "GENERATED VIA SPACETRACK.ORG API",
    "ORIGINATOR": "18 SPCS",
    "NORAD_CAT_ID": "43682",
    "OBJECT_NAME": "H-2A R/B",
    "OBJECT_TYPE": "ROCKET BODY",
    "CLASSIFICATION_TYPE": "U",
    "INTLDES": "18084L",
    "EPOCH": "2020-02-02 23:03:42",
    "EPOCH_MICROSECONDS": "797664",
    "MEAN_MOTION": "15.02764377",
    "ECCENTRICITY": "0.0056483",
    "INCLINATION": "98.9006",
    "RA_OF_ASC_NODE": "220.9815",
    "ARG_OF_PERICENTER": "216.5815",
    "MEAN_ANOMALY": "143.1531",
    "EPHEMERIS_TYPE": "0",
    "ELEMENT_SET_NO": "999",
    "REV_AT_EPOCH": "6930",
    "BSTAR": "-0.0000051905",
    "MEAN_MOTION_DOT": "-0.00000157",
    "MEAN_MOTION_DDOT": "0",
    "FILE": "2694328",
    "TLE_LINE0": "0 H-2A R/B",
    "TLE_LINE1": "1 43682U 18084L   20033.96091201 -.00000157 +00000-0 -51905-5 0  9990",
    "TLE_LINE2": "2 43682 098.9006 220.9815 0056483 216.5815 143.1531 15.02764377069306",
    "OBJECT_ID": "2018-084L",
    "OBJECT_NUMBER": "43682",
    "SEMIMAJOR_AXIS": "6936.514",
    "PERIOD": "95.823",
    "APOGEE": "597.558",
    "PERIGEE": "519.199",
    "DECAYED": "0"
  }
]